NORAD_CAT_ID,OBJECT_NAME,OBJECT_TYPE,EPOCH,MEAN_MOTION,ECCENTRICITY,INCLINATION,RA_OF_ASC_NODE,ARG_OF_PERICENTER,MEAN_ANOMALY,BSTAR,MEAN_MOTION_DOT,MEAN_MOTION_DDOT,TLE_LINE0,TLE_LINE1,TLE_LINE2,SEMIMAJOR_AXIS,PERIOD,APOGEE,PERIGEE,DECAYED
52368.0,STARLINK-3834,PAYLOAD,2023-01-06 05:23:23,15.08838182,0.0003126,53.2195,349.6711,24.8205,335.2937,-0.00018414,-3.218e-05,0.0,0 STARLINK-3834,1 52368U 22045AP  23006.22457202 -.00003218  00000-0 -18414-3 0  9999,2 52368  53.2195 349.6711 0003126  24.8205 335.2937 15.08838182 41028,6917.886,95.438,541.913,537.5880000000002,0.0
52368.0,STARLINK-3834,PAYLOAD,2023-01-06 08:34:09,15.088286800000002,0.0003319,53.2195,349.0781,20.206,339.9063,-0.0004154,-6.892e-05,0.0,0 STARLINK-3834,1 52368U 22045AP  23006.35705594 -.00006892  00000-0 -41540-3 0  9990,2 52368  53.2195 349.0781 0003319  20.2060 339.9063 15.08828680 41047,6917.915,95.438,542.076,537.484,0.0
52368.0,STARLINK-3834,PAYLOAD,2023-01-06 21:17:14,15.08835104,0.0003156,53.2194,346.6978,22.7963,337.3169,-0.00017359,-3.05e-05,0.0,0 STARLINK-3834,1 52368U 22045AP  23006.88697631 -.00003050  00000-0 -17359-3 0  9994,2 52368  53.2194 346.6978 0003156  22.7963 337.3169 15.08835104 41122,6917.895,95.438,541.944,537.577,0.0
52368.0,STARLINK-3834,PAYLOAD,2023-01-07 02:03:24,15.08838411,0.0003204,53.2192,345.8054,22.9523,337.1611,9.9572e-05,1.296e-05,0.0,0 STARLINK-3834,1 52368U 22045AP  23007.08569679  .00001296  00000-0  99572-4 0  9993,2 52368  53.2192 345.8054 0003204  22.9523 337.1611 15.08838411 41151,6917.885,95.438,541.967,537.534,0.0
52368.0,STARLINK-3834,PAYLOAD,2023-01-07 05:14:10,15.08842154,0.0003203,53.2193,345.2106,22.216,337.897,0.00055324,8.528e-05,0.0,0 STARLINK-3834,1 52368U 22045AP  23007.21817772  .00008528  00000-0  55324-3 0  9999,2 52368  53.2193 345.2106 0003203  22.2160 337.8970 15.08842154 41179,6917.874,95.437,541.955,537.523,0.0
52368.0,STARLINK-3834,PAYLOAD,2023-01-07 21:08:02,15.08827939,0.0003023,53.2194,342.2371,20.3986,339.7126,0.00019689,2.845e-05,0.0,0 STARLINK-3834,1 52368U 22045AP  23007.88058536  .00002845  00000-0  19689-3 0  9997,2 52368  53.2194 342.2371 0003023  20.3986 339.7126 15.08827939 41275,6917.917,95.438,541.874,537.691,0.0
52368.0,STARLINK-3834,PAYLOAD,2023-01-08 05:04:58,15.08838789,0.0003016,53.2197,340.7513,20.0841,340.0269,0.0004089,6.225e-05,0.0,0 STARLINK-3834,1 52368U 22045AP  23008.21178496  .00006225  00000-0  40890-3 0  9997,2 52368  53.2197 340.7513 0003016  20.0841 340.0269 15.08838789 41322,6917.884,95.438,541.836,537.663,0.0
52368.0,STARLINK-3834,PAYLOAD,2023-01-08 22:34:12,15.08839863,0.0003065,53.2195,337.4802,25.6375,334.4768,0.00042614,6.500000000000001e-05,0.0,0 STARLINK-3834,1 52368U 22045AP  23008.94042792  .00006500  00000-0  42614-3 0  9998,2 52368  53.2195 337.4802 0003065  25.6375 334.4768 15.08839863 41438,6917.880999999999,95.438,541.866,537.625,0.0
52368.0,STARLINK-3834,PAYLOAD,2023-01-09 04:55:45,15.08839743,0.0003002,53.2194,336.2908,23.5064,336.6065,0.00036619,5.544e-05,0.0,0 STARLINK-3834,1 52368U 22045AP  23009.20538885  .00005544  00000-0  36619-3 0  9996,2 52368  53.2194 336.2908 0003002  23.5064 336.6065 15.08839743 41479,6917.880999999999,95.438,541.823,537.669,0.0
52368.0,STARLINK-3834,PAYLOAD,2023-01-09 14:28:04,15.08843098,0.0003142,53.2205,334.5074,27.751,332.3649,0.00030363,4.548e-05,0.0,0 STARLINK-3834,1 52368U 22045AP  23009.60282849  .00004548  00000-0  30363-3 0  9999,2 52368  53.2205 334.5074 0003142  27.7510 332.3649 15.08843098 41530,6917.871,95.437,541.91,537.562,0.0
52368.0,STARLINK-3834,PAYLOAD,2023-01-10 04:46:32,15.0883712,0.0003243,53.2211,331.8294,20.8522,339.2602,9.7955e-05,1.271e-05,0.0,0 STARLINK-3834,1 52368U 22045AP  23010.19899049  .00001271  00000-0  97955-4 0  9992,2 52368  53.2211 331.8294 0003243  20.8522 339.2602 15.08837120 41624,6917.889,95.438,541.998,537.511,0.0
52368.0,STARLINK-3834,PAYLOAD,2023-01-10 14:18:51,15.08834881,0.0003206,53.2211,330.0469,24.9709,335.1438,1.5365999999999998e-05,-4.4e-07,0.0,0 STARLINK-3834,1 52368U 22045AP  23010.59643253 -.00000044  00000-0  15366-4 0  9994,2 52368  53.2211 330.0469 0003206  24.9709 335.1438 15.08834881 41689,6917.896,95.438,541.979,537.543,0.0
52368.0,STARLINK-3834,PAYLOAD,2023-01-11 14:09:38,15.08836642,0.0003065,53.2213,325.5858,23.741,336.3723,-2.2324e-06,-3.24e-06,0.0,0 STARLINK-3834,1 52368U 22045AP  23011.59003381 -.00000324  00000-0 -22324-5 0  9992,2 52368  53.2213 325.5858 0003065  23.7410 336.3723 15.08836642 41835,6917.891,95.438,541.876,537.635,0.0
52368.0,STARLINK-3834,PAYLOAD,2023-01-11 20:31:11,15.08829848,0.0003027,53.2194,324.3999,23.801,336.3122,-9.4067e-06,-4.38e-06,0.0,0 STARLINK-3834,1 52368U 22045AP  23011.85499909 -.00000438  00000-0 -94067-5 0  9995,2 52368  53.2194 324.3999 0003027  23.8010 336.3122 15.08829848 41878,6917.911,95.438,541.87,537.682,0.0
52368.0,STARLINK-3834,PAYLOAD,2023-01-12 02:52:44,15.08829737,0.0002883,53.2183,323.2094,19.6985,340.4118,8.4318e-06,-1.54e-06,0.0,0 STARLINK-3834,1 52368U 22045AP  23012.11996069 -.00000154  00000-0  84318-5 0  9996,2 52368  53.2183 323.2094 0002883  19.6985 340.4118 15.08829737 41916,6917.911999999998,95.438,541.771,537.7819999999998,0.0
52368.0,STARLINK-3834,PAYLOAD,2023-01-12 20:21:59,15.08834143,0.0002824,53.219,319.9367,29.1877,330.9272,2.8867e-05,1.71e-06,0.0,0 STARLINK-3834,1 52368U 22045AP  23012.84860265  .00000171  00000-0  28867-4 0  9998,2 52368  53.2190 319.9367 0002824  29.1877 330.9272 15.08834143 42025,6917.898,95.438,541.717,537.81,0.0
52368.0,STARLINK-3834,PAYLOAD,2023-01-13 01:08:08,15.08840368,0.0002692,53.2189,319.0447,30.2201,329.8946,0.00013266,1.824e-05,0.0,0 STARLINK-3834,1 52368U 22045AP  23013.04732053  .00001824  00000-0  13266-3 0  9996,2 52368  53.2189 319.0447 0002692  30.2201 329.8946 15.08840368 42054,6917.879,95.438,541.607,537.882,0.0
52368.0,STARLINK-3834,PAYLOAD,2023-01-13 13:51:13,15.08844179,0.0002637,53.2187,316.6657,32.8147,327.3008,0.00016209,2.293e-05,0.0,0 STARLINK-3834,1 52368U 22045AP  23013.57723959  .00002293  00000-0  16209-3 0  9990,2 52368  53.2187 316.6657 0002637  32.8147 327.3008 15.08844179 42139,6917.868,95.437,541.557,537.908,0.0
52368.0,STARLINK-3834,PAYLOAD,2023-01-14 05:45:04,15.08857296,0.0002201999999999,53.2184,313.6892,45.1243,314.9928,0.00032623,4.91e-05,0.0,0 STARLINK-3834,1 52368U 22045AP  23014.23963288  .00004910  00000-0  32623-3 0  9991,2 52368  53.2184 313.6892 0002202  45.1243 314.9928 15.08857296 42234,6917.828,95.436,541.216,538.169,0.0
52368.0,STARLINK-3834,PAYLOAD,2023-01-14 20:03:33,15.08837053,0.0002106999999999,53.2182,311.0157,38.6309,321.4834,-1.9085e-05,-5.92e-06,0.0,0 STARLINK-3834,1 52368U 22045AP  23014.83580198 -.00000592  00000-0 -19085-4 0  9994,2 52368  53.2182 311.0157 0002107  38.6309 321.4834 15.08837053 42320,6917.889,95.438,541.212,538.297,0.0
52368.0,STARLINK-3834,PAYLOAD,2023-01-15 04:00:28,15.08847277,0.0002406,53.2178,309.5293,46.2523,313.8668,0.0001525,2.14e-05,0.0,0 STARLINK-3834,1 52368U 22045AP  23015.16699863  .00002140  00000-0  15250-3 0  9999,2 52368  53.2178 309.5293 0002406  46.2523 313.8668 15.08847277 42377,6917.858,95.437,541.388,538.059,0.0
52368.0,STARLINK-3834,PAYLOAD,2023-01-15 11:57:24,15.08840878,0.0002448,53.2173,308.0425,48.18600000000001,311.9341,1.1145e-05,-1.11e-06,0.0,0 STARLINK-3834,1 52368U 22045AP  23015.49820045 -.00000111  00000-0  11145-4 0  9990,2 52368  53.2173 308.0425 0002448  48.1860 311.9341 15.08840878 42427,6917.878000000001,95.437,541.436,538.049,0.0
52368.0,STARLINK-3834,PAYLOAD,2023-01-15 19:54:19,15.08847889,0.0002308,53.2161,306.5557,45.6773,314.4408,0.00019752,2.857e-05,0.0,0 STARLINK-3834,1 52368U 22045AP  23015.82939645  .00002857  00000-0  19752-3 0  9993,2 52368  53.2161 306.5557 0002308  45.6773 314.4408 15.08847889 42479,6917.856,95.437,541.318,538.125,0.0
52368.0,STARLINK-3834,PAYLOAD,2023-01-16 03:51:14,15.08877885,0.0001999,53.2176,305.0685,46.1385,313.9772,0.00081452,0.00012712,0.0,0 STARLINK-3834,1 52368U 22045AP  23016.16058258  .00012712  00000-0  81452-3 0  9990,2 52368  53.2176 305.0685 0001999  46.1385 313.9772 15.08877885 42524,6917.765,95.435,541.012,538.247,0.0
52368.0,STARLINK-3834,PAYLOAD,2023-01-16 11:48:09,15.08883236,0.0001855999999999,53.2176,303.5817,47.8518,312.2632,0.00082937,0.00012952,0.0,0 STARLINK-3834,1 52368U 22045AP  23016.49177402  .00012952  00000-0  82937-3 0  9994,2 52368  53.2176 303.5817 0001856  47.8518 312.2632 15.08883236 42571,6917.7480000000005,95.435,540.8969999999999,538.3290000000001,0.0
52368.0,STARLINK-3834,PAYLOAD,2023-01-16 21:20:30,15.0882297,0.0001749,53.2168,301.7972,65.5695,294.548,-0.00028066,-4.75e-05,0.0,0 STARLINK-3834,1 52368U 22045AP  23016.88924517 -.00004750  00000-0 -28066-3 0  9996,2 52368  53.2168 301.7972 0001749  65.5695 294.5480 15.08822970 42636,6917.932,95.439,541.007,538.587,0.0
52368.0,STARLINK-3834,PAYLOAD,2023-01-17 11:38:59,15.08826021,0.0001636,53.2172,299.1214,69.7463,290.3705,-9.1221e-05,-1.739e-05,0.0,0 STARLINK-3834,1 52368U 22045AP  23017.48540963 -.00001739  00000-0 -91221-4 0  9990,2 52368  53.2172 299.1214 0001636  69.7463 290.3705 15.08826021 42729,6917.923000000001,95.438,540.92,538.656,0.0
52368.0,STARLINK-3834,PAYLOAD,2023-01-17 18:00:32,15.0882447,0.0001435,53.2172,297.9319,68.7924,291.3221,-2.0422e-05,-6.13e-06,0.0,0 STARLINK-3834,1 52368U 22045AP  23017.75037306 -.00000613  00000-0 -20422-4 0  9997,2 52368  53.2172 297.9319 0001435  68.7924 291.3221 15.08824470 42763,6917.928000000001,95.439,540.786,538.8,0.0
52368.0,STARLINK-3834,PAYLOAD,2023-01-18 00:22:04,15.08836016,0.0001528,53.2179,296.7443,70.5678,289.5479,0.00013065,1.792e-05,0.0,0 STARLINK-3834,1 52368U 22045AP  23018.01533055  .00001792  00000-0  13065-3 0  9990,2 52368  53.2179 296.7443 0001528  70.5678 289.5479 15.08836016 42803,6917.893,95.438,540.815,538.701,0.0
